{"type": "FeatureCollection", "features": [ {"type": "Feature", "properties": {"norad_id": 66052, "name": "HRC MONOBLOCK CAMERA", "group": "stations", "lat": -49.671854289700306, "lon": -6.522470907675034, "alt_km": 406.4191893550251, "timestamp": "2025-12-20T03:42:46.150490+00:00", "meta": {"OBJECT_NAME": "HRC MONOBLOCK CAMERA", "OBJECT_ID": "1998-067XR", "EPOCH": "2025-12-19T20:26:34.281024", "MEAN_MOTION": 15.54619517, "ECCENTRICITY": 0.000251, "INCLINATION": 51.6304, "RA_OF_ASC_NODE": 106.0324, "ARG_OF_PERICENTER": 217.8733, "MEAN_ANOMALY": 142.2081, "EPHEMERIS_TYPE": 0, "CLASSIFICATION_TYPE": "U", "NORAD_CAT_ID": 66052, "ELEMENT_SET_NO": 999, "REV_AT_EPOCH": 994, "BSTAR": 0.00041251, "MEAN_MOTION_DOT": 0.00027417, "MEAN_MOTION_DDOT": 0}, "tle": {"line1": "1 66052U 98067XR  25353.85178566  .00027417  00000+0  41251-3 0  9999", "line2": "2 66052  51.6304 106.0324 0002510 217.8733 142.2081 15.54619517  9949"}}, "geometry": {"type": "Point", "coordinates": [-6.522470907675034, -49.671854289700306]}}, {"type": "Feature", "properties": {"norad_id": 66174, "name": "HTV-X1", "group": "stations", "lat": 16.72312012834337, "lon": 119.52808552686123, "alt_km": 416.64348017754673, "timestamp": "2025-12-20T03:42:46.150503+00:00", "meta": {"OBJECT_NAME": "HTV-X1", "OBJECT_ID": "2025-241A", "EPOCH": "2025-12-19T10:35:44.375712", "MEAN_MOTION": 15.49667075, "ECCENTRICITY": 0.00031732, "INCLINATION": 51.6317, "RA_OF_ASC_NODE": 109.2912, "ARG_OF_PERICENTER": 271.328, "MEAN_ANOMALY": 88.7345, "EPHEMERIS_TYPE": 0, "CLASSIFICATION_TYPE": "U", "NORAD_CAT_ID": 66174, "ELEMENT_SET_NO": 999, "REV_AT_EPOCH": 51, "BSTAR": 0.00012809493, "MEAN_MOTION_DOT": 6.778e-05, "MEAN_MOTION_DDOT": 0}, "tle": {"line1": "1 66174U 25241A   25353.44148583  .00006778  00000+0  12809-3 0  9993", "line2": "2 66174  51.6317 109.2912 0003173 271.3280  88.7345 15.49667075   511"}}, "geometry": {"type": "Point", "coordinates": [119.52808552686123, 16.72312012834337]}}, {"type": "Feature", "properties": {"norad_id": 66515, "name": "SZ-21 MODULE", "group": "stations", "lat": 34.05630907046328, "lon": 20.721781787915933, "alt_km": 375.52103871288546, "timestamp": "2025-12-20T03:42:46.150516+00:00", "meta": {"OBJECT_NAME": "SZ-21 MODULE", "OBJECT_ID": "2025-246C", "EPOCH": "2025-12-19T05:59:43.928736", "MEAN_MOTION": 15.62811821, "ECCENTRICITY": 0.0005734, "INCLINATION": 41.4773, "RA_OF_ASC_NODE": 336.3242, "ARG_OF_PERICENTER": 295.0263, "MEAN_ANOMALY": 64.9981, "EPHEMERIS_TYPE": 0, "CLASSIFICATION_TYPE": "U", "NORAD_CAT_ID": 66515, "ELEMENT_SET_NO": 999, "REV_AT_EPOCH": 546, "BSTAR": 0.00023433, "MEAN_MOTION_DOT": 0.00021457, "MEAN_MOTION_DDOT": 0}, "tle": {"line1": "1 66515U 25246C   25353.24981399  .00021457  00000+0  23433-3 0  9991", "line2": "2 66515  41.4773 336.3242 0005734 295.0263  64.9981 15.62811821  5467"}}, "geometry": {"type": "Point", "coordinates": [20.721781787915933, 34.05630907046328]}}, {"type": "Feature", "properties": {"norad_id": 66645, "name": "SHENZHOU-22", "group": "stations", "lat": 34.967474821796955, "lon": 24.046387944472947, "alt_km": 379.06970860235106, "timestamp": "2025-12-20T03:42:46.150526+00:00", "meta": {"OBJECT_NAME": "SHENZHOU-22", "OBJECT_ID": "2025-272A", "EPOCH": "2025-12-19T09:00:48.563712", "MEAN_MOTION": 15.59465114, "ECCENTRICITY": 0.00077296, "INCLINATION": 41.4684, "RA_OF_ASC_NODE": 336.4137, "ARG_OF_PERICENTER": 89.1398, "MEAN_ANOMALY": 271.0326, "EPHEMERIS_TYPE": 0, "CLASSIFICATION_TYPE": "U", "NORAD_CAT_ID": 66645, "ELEMENT_SET_NO": 999, "REV_AT_EPOCH": 26357, "BSTAR": 0.00025572286, "MEAN_MOTION_DOT": 0.00020582, "MEAN_MOTION_DDOT": 0}, "tle": {"line1": "1 66645U 25272A   25353.37556208  .00020582  00000+0  25572-3 0  9999", "line2": "2 66645  41.4684 336.4137 0007729  89.1398 271.0326 15.59465114263571"}}, "geometry": {"type": "Point", "coordinates": [24.046387944472947, 34.967474821796955]}}, {"type": "Feature", "properties": {"norad_id": 66664, "name": "SOYUZ-MS 28", "group": "stations", "lat": 16.723164275099634, "lon": 119.5281247368326, "alt_km": 416.643475361795, "timestamp": "2025-12-20T03:42:46.150536+00:00", "meta": {"OBJECT_NAME": "SOYUZ-MS 28", "OBJECT_ID": "2025-275A", "EPOCH": "2025-12-19T10:35:44.374848", "MEAN_MOTION": 15.49667075, "ECCENTRICITY": 0.0003173, "INCLINATION": 51.6317, "RA_OF_ASC_NODE": 109.2912, "ARG_OF_PERICENTER": 271.328, "MEAN_ANOMALY": 88.7345, "EPHEMERIS_TYPE": 0, "CLASSIFICATION_TYPE": "U", "NORAD_CAT_ID": 66664, "ELEMENT_SET_NO": 999, "REV_AT_EPOCH": 348, "BSTAR": 0.00012809, "MEAN_MOTION_DOT": 6.778e-05, "MEAN_MOTION_DDOT": 0}, "tle": {"line1": "1 66664U 25275A   25353.44148582  .00006778  00000+0  12809-3 0  9993", "line2": "2 66664  51.6317 109.2912 0003173 271.3280  88.7345 15.49667075  3484"}}, "geometry": {"type": "Point", "coordinates": [119.5281247368326, 16.723164275099634]}}, {"type": "Feature", "properties": {"norad_id": 66906, "name": "1998-067XS", "group": "stations", "lat": 50.89124845772467, "lon": -177.31022356699424, "alt_km": 408.8109310058453, "timestamp": "2025-12-20T03:42:46.150546+00:00", "meta": {"OBJECT_NAME": "1998-067XS", "OBJECT_ID": "1998-067XS", "EPOCH": "2025-12-19T19:37:45.031584", "MEAN_MOTION": 15.50933488, "ECCENTRICITY": 0.0002966, "INCLINATION": 51.6311, "RA_OF_ASC_NODE": 107.3061, "ARG_OF_PERICENTER": 238.2809, "MEAN_ANOMALY": 121.7891, "EPHEMERIS_TYPE": 0, "CLASSIFICATION_TYPE": "U", "NORAD_CAT_ID": 66906, "ELEMENT_SET_NO": 999, "REV_AT_EPOCH": 271, "BSTAR": 0.00034987, "MEAN_MOTION_DOT": 0.00020233, "MEAN_MOTION_DDOT": 0}, "tle": {"line1": "1 66906U 98067XS  25353.81788231  .00020233  00000+0  34987-3 0  9996", "line2": "2 66906  51.6311 107.3061 0002966 238.2809 121.7891 15.50933488  2714"}}, "geometry": {"type": "Point", "coordinates": [-177.31022356699424, 50.89124845772467]}}, {"type": "Feature", "properties": {"norad_id": 66907, "name": "1998-067XT", "group": "stations", "lat": 38.30365162678028, "lon": -113.20369082808585, "alt_km": 406.91068674355483, "timestamp": "2025-12-20T03:42:46.150556+00:00", "meta": {"OBJECT_NAME": "1998-067XT", "OBJECT_ID": "1998-067XT", "EPOCH": "2025-12-19T11:42:50.767776", "MEAN_MOTION": 15.52255247, "ECCENTRICITY": 0.0003998, "INCLINATION": 51.6306, "RA_OF_ASC_NODE": 108.8528, "ARG_OF_PERICENTER": 265.7173, "MEAN_ANOMALY": 94.336, "EPHEMERIS_TYPE": 0, "CLASSIFICATION_TYPE": "U", "NORAD_CAT_ID": 66907, "ELEMENT_SET_NO": 999, "REV_AT_EPOCH": 266, "BSTAR": 0.00077339, "MEAN_MOTION_DOT": 0.00047666, "MEAN_MOTION_DDOT": 0}, "tle": {"line1": "1 66907U 98067XT  25353.48808759  .00047666  00000+0  77339-3 0  9995", "line2": "2 66907  51.6306 108.8528 0003998 265.7173  94.3360 15.52255247  2660"}}, "geometry": {"type": "Point", "coordinates": [-113.20369082808585, 38.30365162678028]}}, {"type": "Feature", "properties": {"norad_id": 66908, "name": "1998-067XU", "group": "stations", "lat": 35.56271035839227, "lon": -108.97668907689085, "alt_km": 406.793379429434, "timestamp": "2025-12-20T03:42:46.150566+00:00", "meta": {"OBJECT_NAME": "1998-067XU", "OBJECT_ID": "1998-067XU", "EPOCH": "2025-12-18T14:03:56.443680", "MEAN_MOTION": 15.52259493, "ECCENTRICITY": 0.00039838, "INCLINATION": 51.6306, "RA_OF_ASC_NODE": 113.3296, "ARG_OF_PERICENTER": 260.0245, "MEAN_ANOMALY": 100.0295, "EPHEMERIS_TYPE": 0, "CLASSIFICATION_TYPE": "U", "NORAD_CAT_ID": 66908, "ELEMENT_SET_NO": 999, "REV_AT_EPOCH": 252, "BSTAR": 0.00087908108, "MEAN_MOTION_DOT": 0.00054298, "MEAN_MOTION_DDOT": 0}, "tle": {"line1": "1 66908U 98067XU  25352.58606995  .00054298  00000+0  87908-3 0  9996", "line2": "2 66908  51.6306 113.3296 0003983 260.0245 100.0295 15.52259493  2520"}}, "geometry": {"type": "Point", "coordinates": [-108.97668907689085, 35.56271035839227]}}, {"type": "Feature", "properties": {"norad_id": 66909, "name": "SILVERSAT", "group": "stations", "lat": 31.89677241956657, "lon": -104.02678184354588, "alt_km": 406.87924598276004, "timestamp": "2025-12-20T03:42:46.150576+00:00", "meta": {"OBJECT_NAME": "SILVERSAT", "OBJECT_ID": "1998-067XV", "EPOCH": "2025-12-19T13:13:09.424128", "MEAN_MOTION": 15.5251652, "ECCENTRICITY": 0.0003839, "INCLINATION": 51.6306, "RA_OF_ASC_NODE": 108.5226, "ARG_OF_PERICENTER": 268.696, "MEAN_ANOMALY": 91.359, "EPHEMERIS_TYPE": 0, "CLASSIFICATION_TYPE": "U", "NORAD_CAT_ID": 66909, "ELEMENT_SET_NO": 999, "REV_AT_EPOCH": 267, "BSTAR": 0.00079912, "MEAN_MOTION_DOT": 0.00049748, "MEAN_MOTION_DDOT": 0}, "tle": {"line1": "1 66909U 98067XV  25353.55080352  .00049748  00000+0  79912-3 0  9998", "line2": "2 66909  51.6306 108.5226 0003839 268.6960  91.3590 15.52516520  2671"}}, "geometry": {"type": "Point", "coordinates": [-104.02678184354588, 31.89677241956657]}}, {"type": "Feature", "properties": {"norad_id": 66910, "name": "1998-067XW", "group": "stations", "lat": 24.83134545434427, "lon": -96.0110122275742, "alt_km": 406.6504157002237, "timestamp": "2025-12-20T03:42:46.150586+00:00", "meta": {"OBJECT_NAME": "1998-067XW", "OBJECT_ID": "1998-067XW", "EPOCH": "2025-12-19T13:10:35.176800", "MEAN_MOTION": 15.525263, "ECCENTRICITY": 0.0004382, "INCLINATION": 51.6305, "RA_OF_ASC_NODE": 108.5102, "ARG_OF_PERICENTER": 243.3936, "MEAN_ANOMALY": 116.6605, "EPHEMERIS_TYPE": 0, "CLASSIFICATION_TYPE": "U", "NORAD_CAT_ID": 66910, "ELEMENT_SET_NO": 999, "REV_AT_EPOCH": 267, "BSTAR": 0.00069409, "MEAN_MOTION_DOT": 0.0004313, "MEAN_MOTION_DDOT": 0}, "tle": {"line1": "1 66910U 98067XW  25353.54901825  .00043130  00000+0  69409-3 0  9995", "line2": "2 66910  51.6305 108.5102 0004382 243.3936 116.6605 15.52526300  2677"}}, "geometry": {"type": "Point", "coordinates": [-96.0110122275742, 24.83134545434427]}}]}